{
    "links": {
        "self": "http://www.neowsapp.com/rest/v1/neo/3768017?api_key=iIulBulltgU6a56xZRHN4H3l9WmuAYTsLGpBGhQ2"
    },
    "id": "3768017",
    "neo_reference_id": "3768017",
    "name": "(2017 BZ93)",
    "designation": "2017 BZ93",
    "nasa_jpl_url": "http://ssd.jpl.nasa.gov/sbdb.cgi?sstr=3768017",
    "absolute_magnitude_h": 24.9,
    "estimated_diameter": {
        "kilometers": {
            "estimated_diameter_min": 0.0278326768,
            "estimated_diameter_max": 0.0622357573
        },
        "meters": {
            "estimated_diameter_min": 27.8326768072,
            "estimated_diameter_max": 62.2357573367
        },
        "miles": {
            "estimated_diameter_min": 0.0172944182,
            "estimated_diameter_max": 0.0386714948
        },
        "feet": {
            "estimated_diameter_min": 91.3145593761,
            "estimated_diameter_max": 204.1855621004
        }
    },
    "is_potentially_hazardous_asteroid": false,
    "close_approach_data": [
        {
            "close_approach_date": "2017-02-05",
            "close_approach_date_full": "2017-Feb-05 23:35",
            "epoch_date_close_approach": 1486337700000,
            "relative_velocity": {
                "kilometers_per_second": "24.567294229",
                "kilometers_per_hour": "88442.2592245314",
                "miles_per_hour": "54954.5804609317"
            },
            "miss_distance": {
                "astronomical": "0.0324641796",
                "lunar": "12.6285658644",
                "kilometers": "4856572.119457452",
                "miles": "3017733.9808467576"
            },
            "orbiting_body": "Earth"
        },
        {
            "close_approach_date": "2119-08-09",
            "close_approach_date_full": "2119-Aug-09 20:19",
            "epoch_date_close_approach": 4721055540000,
            "relative_velocity": {
                "kilometers_per_second": "24.6828911617",
                "kilometers_per_hour": "88858.4081822168",
                "miles_per_hour": "55213.1592396669"
            },
            "miss_distance": {
                "astronomical": "0.0409986082",
                "lunar": "15.9484585898",
                "kilometers": "6133304.459684534",
                "miles": "3811058.6701092092"
            },
            "orbiting_body": "Earth"
        }
    ],
    "orbital_data": {
        "orbit_id": "3",
        "orbit_determination_date": "2017-04-06 08:20:24",
        "first_observation_date": "2017-01-31",
        "last_observation_date": "2017-02-04",
        "data_arc_in_days": 4,
        "observations_used": 14,
        "orbit_uncertainty": "8",
        "minimum_orbit_intersection": ".0277117",
        "jupiter_tisserand_invariant": "3.852",
        "epoch_osculation": "2457786.5",
        "eccentricity": ".6371328891990523",
        "semi_major_axis": "1.678870549676568",
        "inclination": "30.77390293777369",
        "ascending_node_longitude": "134.266686872425",
        "orbital_period": "794.5555090964305",
        "perihelion_distance": ".6092069057699352",
        "perihelion_argument": "92.96754706750328",
        "aphelion_distance": "2.748534193583201",
        "perihelion_time": "2457840.431103638373",
        "mean_anomaly": "335.5647061941673",
        "mean_motion": ".4530835113199234",
        "equinox": "J2000",
        "orbit_class": {
            "orbit_class_type": "APO",
            "orbit_class_description": "Near-Earth asteroid orbits which cross the Earth’s orbit similar to that of 1862 Apollo",
            "orbit_class_range": "a (semi-major axis) > 1.0 AU; q (perihelion) < 1.017 AU"
        }
    },
    "is_sentry_object": false
}